#dP2020  4 11  0  0  0.00000000      96 __u+U ITR00 FIT  IAC
## 2100 518400.00000000   900.00000000 58950 0.0000000000000
+  114   C06C07C08C09C10C11C12C13C14C16C19C20C21C22C23C24C25
+        C26C27C28C29C30C32C33C34C35C36C37C38C39C40C43C44C45
+        C46E01E02E03E04E05E07E08E09E11E12E13E14E15E18E19E21
+        E24E25E26E27E30E31E33E36G01G02G03G04G05G06G07G08G09
+        G10G11G12G13G14G15G16G17G18G19G20G21G22G23G24G25G26
+        G27G28G29G30G31G32R01R02R03R04R05R07R08R09R11R12R13
+        R14R15R16R17R18R19R20R21R22R23R24R26  0  0  0  0  0
++         9  9  9  8  8  6 13  9  6  9  8  7  7  7  6  6  9
++         8  6  6  7  7  8  7  7  8  7  4 13 11 14  8  9  8
++         9  6  6  6  6  6  5  5  7  7  7  6  6  5  6  6  7
++         5  7  6  7  6  6  6  7  4  5  6  4  4  9  6  4  6
++         3  6  5  5  6  5  5  7  6  6  5  6  5  0  4  6  5
++         4  6  5  4  6  4  7  6  6  7  7  6  5  6  5  6  8
++         6  7  7  6  5  8  8  5  0  6  0  0  0  0  0  0  0
%c M  cc GPS ccc cccc cccc cccc cccc ccccc ccccc ccccc ccccc
%c cc cc ccc ccc cccc cccc cccc cccc ccccc ccccc ccccc ccccc
%f  0.0000000  0.000000000  0.00000000000  0.000000000000000
%f  0.0000000  0.000000000  0.00000000000  0.000000000000000
%i    0    0    0    0      0      0      0      0         0
%i    0    0    0    0      0      0      0      0         0
/* INFORMATION & ANALYSIS CENTER (IAC)      ULTRA-RAPID DATA
/* S/V CLOCKS ARE ALIGNED TO GNSS TIME                      
/* G:C1WC2W R:C1PC2P E:C1XC5X C:C2IC6I J:C1CC2S             
/* PCV:IGS14_2097 OL/AL:FES2004  NONE     YN ORB:CoN CLK:CoN
*  2020 04 11  5  0  0.00000000
PC06 -11390.095333  36528.747605 -16830.338594    243.725471
PC07 -13919.879478  22466.122188  33007.614926    872.374558
PC08 -26580.837926  28535.843784 -16337.153898   -196.000515
PC09  -2348.896736  41831.686286  -2029.737333    464.377998
PC10   2239.967937  28249.783688  31488.069308   -844.864896
PC11  10822.334868  14043.558889 -21503.753040   -295.838120
PC12  -1077.946568  26557.481588  -8501.569587    347.911317
PC13 -13129.000556  29740.294456 -26895.815325    374.869608
PC14  21213.780162  18028.578200   2363.231798    286.211002
PC16  -8502.224652  38706.900542 -14037.079440   -685.177882
PC19 -22975.627122 -11349.914562 -10996.058834    378.798995
PC20 -16550.712395 -21626.334897   6042.596828   -915.453774
PC21     47.574504  19397.789044 -20045.596941   -271.663602
PC22 -16143.557643   5760.734237 -22004.671788   -839.390740
PC23  25136.596236 -10868.182266  -5367.870331   -916.791394
PC24  10106.485549  13566.111491  22180.393415   -862.792359
PC25  25322.678140    959.102774  11662.178794   -579.004707
PC26  -9460.676781  17415.305842  19651.706401    639.738619
PC27   7584.243504 -26865.554553   -473.795198    310.865004
PC28  16085.339484 -15646.543396 -16584.489254    301.865664
PC29 -15351.940234  -4077.787312  22938.297757    213.311143
PC30  -5997.545410 -22315.212090  15663.575106    300.324271
PC32   -150.809891 -19407.683718  20067.804844   -922.904310
PC33  23070.071256  11258.799964  10979.055545   -874.051416
PC34   6265.411047  21996.209874 -15975.342944   -622.942659
PC35 -15626.328330  15996.028549  16669.227169   -897.114732
PC36 -25205.649443  -1689.259792 -11832.941218   -821.787352
PC37  10500.730593 -17142.704606 -19334.586335   -846.099413
PC38 -22196.644390  30338.042573 -19192.708936 999999.999999
PC39  -5244.341490  39619.470353 -13285.489443     13.679034
PC40   -649.840775  24112.995912  34605.894943     33.850456
PC43  15378.122437   4453.407758 -22858.974559   -144.964991
PC44  -6809.462095  27034.139825    617.010936 999999.999999
PC45 -25134.691155  10910.031094   5340.701141 999999.999999
PC46 -10629.763033 -13207.908598 -22166.253353 999999.999999
PE01  11070.155957 -14128.503669 -23540.801585   -833.481845
PE02 -11002.955868  14147.938573  23553.929787    125.632011
PE03  -4398.787378  23368.765892 -17632.211907   -286.632203
PE04  -9969.065569 -27852.668862   1009.766045   -503.150644
PE05 -16370.975591   5111.597105 -24119.478745   -389.630970
PE07  18695.487970  15988.624817  16479.697512   -366.569121
PE08  10306.721383  27743.840339   -799.263676   6194.028055
PE09 -18710.697584 -15809.794087 -16598.041452   6096.794637
PE11 -16378.778998  -4953.596915  24147.874649   2207.274599
PE12   -407.311984 -21327.317979  20538.896738   5859.995534
PE13  16202.391690   5057.017256 -24243.542605    399.971489
PE14  15253.903657  21001.747003 -17818.845500   -973.348521
PE15    634.414665  21153.078849 -20681.231399    870.880763
PE18  -6555.346209 -23010.142553   7615.981121  -1071.844410
PE19   5824.103327 -21915.023788  19034.881499   -408.818136
PE21  26943.735015  -3701.178769 -11686.972821   -592.862568
PE24 -27133.133426  -9338.928938  -7330.029911   5513.503387
PE25 -27005.684366   3614.413141  11572.554195   -508.873917
PE26  22416.906599 -14114.323078 -13204.821087   3315.912039
PE27  27242.961539   9072.702353   7170.571401    243.371427
PE30  11156.979407  16590.979462  21808.900459   3995.559841
PE31 -11547.609702 -16456.676853 -21725.151284   -472.246391
PE33  15313.540123 -24846.667963   4985.301965   -468.539574
PE36 -22262.264056  13988.366060  13594.108828    574.474789
PG01  -9958.475586  19367.107840 -15177.398473   -354.294044
PG02  22028.488148 -13817.548560  -4588.690268   -437.456856
PG03   1168.129015  16468.285050 -20881.323026   -142.396549
PG04   -658.424637  26342.785327  -3197.163620    -74.573979
PG05  19462.602174  -5135.494231  17292.778658    -10.655294
PG06  22091.721090  -4005.676876 -14174.109730   -250.247085
PG07   8189.641478  13178.037275  21841.736717   -255.998718
PG08  -7307.096103  21282.651811  13922.844201    -30.230031
PG09   7793.206927  24315.902248   7230.637167   -195.368768
PG10 -24029.819688 -11591.657861    794.053498   -306.494312
PG11 -11737.381010  23998.401343  -1226.023124   -308.541052
PG12   1616.066633 -15703.873788 -21621.513530    130.582961
PG13  12870.821022 -14530.634350  17969.082040      1.181488
PG14 -15053.797271  -1098.599793 -21518.447138    -20.362782
PG15   5279.707508 -22334.417809  12728.346858   -238.795746
PG16 -18999.203265   3261.944456  18254.271889   -145.253114
PG17  13235.373509  11962.991866 -19272.354591    246.835479
PG18  -3139.409306 -15663.363499  21220.742784    152.092878
PG19  14752.550429   3141.261696 -22160.849919   -173.660774
PG20 -18720.262015 -14866.451197  11718.086151    527.821508
PG21  -8984.564821 -12992.082333  22148.069647    -15.756615
PG22  -8290.453971  13650.985726 -20987.253711   -784.886454
PG23   3847.173464  26059.373359   1123.163602   -123.015840
PG24  10443.438581 -20600.645624 -12980.910216    -11.529326
PG25 -10292.890079 -17831.956596 -17164.273716     -3.901903
PG26 -24653.818046  -2765.878025   9752.662460    185.221533
PG27 -12585.195561  11396.903509  20195.889742   -263.629687
PG28  23000.493985  13093.240117   -257.000645    726.267101
PG29  -4084.868779 -25693.537892   5256.330767    -78.229121
PG30  17838.031426   5035.052267  19130.539533   -195.752447
PG31 -23197.588712   5002.795537 -12418.511402    -35.263957
PG32 -14793.674054 -10379.182721 -19435.903334    257.002770
PR01 -17223.866513 -17230.499309  -7524.888950     59.848940
PR02 -12793.226801    -70.574720 -22033.786122    421.236851
PR03  -1020.923803  15301.806716 -20323.268702     13.099743
PR04  11345.555688  21708.839505  -7086.181615     45.167876
PR05  17124.255834  15911.320712  10201.303933     48.426017
PR07    589.663704 -15748.779992  20110.071635    -35.331454
PR08 -11215.672458 -21774.733697   7204.570707    -51.556302
PR09  23199.166662  -6470.728373  -8492.880513    126.644825
PR11  -7283.288805 -10122.233507 -22236.325403    -19.784174
PR12 -21902.229090  -3836.581391 -12500.890012    121.583825
PR13 -24525.264655   4968.556306   4929.078301    -37.239964
PR14 -12655.474279  10582.762479  19457.329176     50.048038
PR15   6322.486442  10170.112216  22536.525927    106.310930
PR16  22162.273004   3296.400696  12045.510759     -2.718743
PR17 -11521.393113  22689.030417   2000.386174    316.401813
PR18  -2635.879208  20887.600213 -14341.817376     31.623245
PR19   7193.064855   8513.173518 -22942.575273    -88.115405
PR20  14414.828911 -11057.408863 -17921.830501   -408.855990
PR21  11189.175640 -22887.947261  -1056.760794   -117.248889
PR22   1158.764641 -19586.371889  16382.303948 999999.999999
PR23 -10630.455019  -1741.000321  23114.792678    298.423201
PR24 -14377.122121  13473.641062  16161.930784 999999.999999
PR26  13451.045856  -7021.795879 -20484.887130   -399.965847
EOF
